{
  "type": "FeatureCollection",
  "features": [
    {
      "type": "Feature",
      "properties": {
        "norad_id": 66719,
        "name": "FLOCK 4H-16",
        "group": "last-30-days",
        "lat": -10.086616371979252,
        "lon": 74.48230572090718,
        "alt_km": 519.5293644888916,
        "timestamp": "2025-12-27T15:27:09.829849+00:00",
        "meta_object_name": "FLOCK 4H-16",
        "meta_object_id": "2025-276BF",
        "meta_epoch": "2025-12-27T06:00:02.000160",
        "meta_mean_motion": 15.17289595,
        "meta_eccentricity": 0.00033817,
        "meta_inclination": 97.4428,
        "meta_ra_of_asc_node": 72.7629,
        "meta_arg_of_pericenter": 231.8906,
        "meta_mean_anomaly": 128.1547,
        "meta_ephemeris_type": 0,
        "meta_classification_type": "U",
        "meta_norad_cat_id": 66719,
        "meta_element_set_no": 999,
        "meta_rev_at_epoch": 374,
        "meta_bstar": -0.0010550958,
        "meta_mean_motion_dot": -0.00021012,
        "meta_mean_motion_ddot": 0,
        "tle_line1": "1 66719U 25276BF  25361.25002315 -.00021012  00000+0 -10551-2 0  9997",
        "tle_line2": "2 66719  97.4428  72.7629 0003381 231.8906 128.1547 15.17289595  3746"
      },
      "geometry": {
        "type": "Point",
        "coordinates": [
          74.48230572090718,
          -10.086616371979252
        ]
      }
    },
    {
      "type": "Feature",
      "properties": {
        "norad_id": 66720,
        "name": "FLOCK 4H-17",
        "group": "last-30-days",
        "lat": 73.07415807689891,
        "lon": 47.74753453727762,
        "alt_km": 504.9231055598393,
        "timestamp": "2025-12-27T15:27:09.829859+00:00",
        "meta_object_name": "FLOCK 4H-17",
        "meta_object_id": "2025-276BG",
        "meta_epoch": "2025-12-27T06:00:02.000160",
        "meta_mean_motion": 15.18135442,
        "meta_eccentricity": 0.00029753,
        "meta_inclination": 97.4429,
        "meta_ra_of_asc_node": 72.8014,
        "meta_arg_of_pericenter": 177.5361,
        "meta_mean_anomaly": 266.2121,
        "meta_ephemeris_type": 0,
        "meta_classification_type": "U",
        "meta_norad_cat_id": 66720,
        "meta_element_set_no": 999,
        "meta_rev_at_epoch": 173,
        "meta_bstar": -0.00074756782,
        "meta_mean_motion_dot": -0.00015282,
        "meta_mean_motion_ddot": 0,
        "tle_line1": "1 66720U 25276BG  25361.25002315 -.00015282  00000+0 -74757-3 0  9990",
        "tle_line2": "2 66720  97.4429  72.8014 0002975 177.5361 266.2121 15.18135442  1738"
      },
      "geometry": {
        "type": "Point",
        "coordinates": [
          47.74753453727762,
          73.07415807689891
        ]
      }
    },
    {
      "type": "Feature",
      "properties": {
        "norad_id": 66721,
        "name": "FLOCK 4H-18",
        "group": "last-30-days",
        "lat": -17.623157441503572,
        "lon": 75.50106478515539,
        "alt_km": 519.2083961592643,
        "timestamp": "2025-12-27T15:27:09.829869+00:00",
        "meta_object_name": "FLOCK 4H-18",
        "meta_object_id": "2025-276BH",
        "meta_epoch": "2025-12-27T04:27:02.791008",
        "meta_mean_motion": 15.17190145,
        "meta_eccentricity": 0.00024429,
        "meta_inclination": 97.4375,
        "meta_ra_of_asc_node": 72.6728,
        "meta_arg_of_pericenter": 259.6287,
        "meta_mean_anomaly": 100.4672,
        "meta_ephemeris_type": 0,
        "meta_classification_type": "U",
        "meta_norad_cat_id": 66721,
        "meta_element_set_no": 999,
        "meta_rev_at_epoch": 431,
        "meta_bstar": 0.00036557552,
        "meta_mean_motion_dot": 7.199e-05,
        "meta_mean_motion_ddot": 0,
        "tle_line1": "1 66721U 25276BH  25361.18544897  .00007199  00000+0  36558-3 0  9992",
        "tle_line2": "2 66721  97.4375  72.6728 0002442 259.6287 100.4672 15.17190145  4314"
      },
      "geometry": {
        "type": "Point",
        "coordinates": [
          75.50106478515539,
          -17.623157441503572
        ]
      }
    },
    {
      "type": "Feature",
      "properties": {
        "norad_id": 66722,
        "name": "FLOCK 4H-19",
        "group": "last-30-days",
        "lat": 81.61311001229357,
        "lon": -44.440571897702334,
        "alt_km": 502.10923401193395,
        "timestamp": "2025-12-27T15:27:09.829879+00:00",
        "meta_object_name": "FLOCK 4H-19",
        "meta_object_id": "2025-276BJ",
        "meta_epoch": "2025-12-27T05:33:03.564864",
        "meta_mean_motion": 15.18371151,
        "meta_eccentricity": 0.00026009,
        "meta_inclination": 97.4379,
        "meta_ra_of_asc_node": 72.7663,
        "meta_arg_of_pericenter": 144.4454,
        "meta_mean_anomaly": 215.6954,
        "meta_ephemeris_type": 0,
        "meta_classification_type": "U",
        "meta_norad_cat_id": 66722,
        "meta_element_set_no": 999,
        "meta_rev_at_epoch": 361,
        "meta_bstar": 0.00085958538,
        "meta_mean_motion_dot": 0.00017627,
        "meta_mean_motion_ddot": 0,
        "tle_line1": "1 66722U 25276BJ  25361.23129126  .00017627  00000+0  85959-3 0  9999",
        "tle_line2": "2 66722  97.4379  72.7663 0002600 144.4454 215.6954 15.18371151  3614"
      },
      "geometry": {
        "type": "Point",
        "coordinates": [
          -44.440571897702334,
          81.61311001229357
        ]
      }
    },
    {
      "type": "Feature",
      "properties": {
        "norad_id": 66723,
        "name": "FLOCK 4H-20",
        "group": "last-30-days",
        "lat": 79.13274601494847,
        "lon": -63.901526723642114,
        "alt_km": 502.23840469079187,
        "timestamp": "2025-12-27T15:27:09.829889+00:00",
        "meta_object_name": "FLOCK 4H-20",
        "meta_object_id": "2025-276BK",
        "meta_epoch": "2025-12-27T05:31:59.466432",
        "meta_mean_motion": 15.18381694,
        "meta_eccentricity": 0.0003158,
        "meta_inclination": 97.4415,
        "meta_ra_of_asc_node": 72.7828,
        "meta_arg_of_pericenter": 158.3115,
        "meta_mean_anomaly": 201.8254,
        "meta_ephemeris_type": 0,
        "meta_classification_type": "U",
        "meta_norad_cat_id": 66723,
        "meta_element_set_no": 999,
        "meta_rev_at_epoch": 357,
        "meta_bstar": 0.00062657617,
        "meta_mean_motion_dot": 0.00012827,
        "meta_mean_motion_ddot": 0,
        "tle_line1": "1 66723U 25276BK  25361.23054938  .00012827  00000+0  62658-3 0  9996",
        "tle_line2": "2 66723  97.4415  72.7828 0003158 158.3115 201.8254 15.18381694  3574"
      },
      "geometry": {
        "type": "Point",
        "coordinates": [
          -63.901526723642114,
          79.13274601494847
        ]
      }
    },
    {
      "type": "Feature",
      "properties": {
        "norad_id": 66724,
        "name": "FLOCK 4H-21",
        "group": "last-30-days",
        "lat": 77.0035977192186,
        "lon": -72.34658272189661,
        "alt_km": 506.80482083772495,
        "timestamp": "2025-12-27T15:27:09.829899+00:00",
        "meta_object_name": "FLOCK 4H-21",
        "meta_object_id": "2025-276BL",
        "meta_epoch": "2025-12-27T03:56:12.880608",
        "meta_mean_motion": 15.18092804,
        "meta_eccentricity": 0.00071752,
        "meta_inclination": 97.4386,
        "meta_ra_of_asc_node": 72.7042,
        "meta_arg_of_pericenter": 349.7212,
        "meta_mean_anomaly": 10.3874,
        "meta_ephemeris_type": 0,
        "meta_classification_type": "U",
        "meta_norad_cat_id": 66724,
        "meta_element_set_no": 999,
        "meta_rev_at_epoch": 356,
        "meta_bstar": -0.0096419129,
        "meta_mean_motion_dot": -0.00191589,
        "meta_mean_motion_ddot": 0,
        "tle_line1": "1 66724U 25276BL  25361.16403797 -.00191589  00000+0 -96419-2 0  9996",
        "tle_line2": "2 66724  97.4386  72.7042 0007175 349.7212  10.3874 15.18092804  3569"
      },
      "geometry": {
        "type": "Point",
        "coordinates": [
          -72.34658272189661,
          77.0035977192186
        ]
      }
    },
    {
      "type": "Feature",
      "properties": {
        "norad_id": 66725,
        "name": "FLOCK 4H-22",
        "group": "last-30-days",
        "lat": 13.635028642496204,
        "lon": 71.31639719617088,
        "alt_km": 514.78038921191,
        "timestamp": "2025-12-27T15:27:09.829911+00:00",
        "meta_object_name": "FLOCK 4H-22",
        "meta_object_id": "2025-276BM",
        "meta_epoch": "2025-12-27T05:53:50.200224",
        "meta_mean_motion": 15.17548569,
        "meta_eccentricity": 0.00015158,
        "meta_inclination": 97.437,
        "meta_ra_of_asc_node": 72.7412,
        "meta_arg_of_pericenter": 262.7983,
        "meta_mean_anomaly": 97.3079,
        "meta_ephemeris_type": 0,
        "meta_classification_type": "U",
        "meta_norad_cat_id": 66725,
        "meta_element_set_no": 999,
        "meta_rev_at_epoch": 432,
        "meta_bstar": 0.00033182891,
        "meta_mean_motion_dot": 6.595e-05,
        "meta_mean_motion_ddot": 0,
        "tle_line1": "1 66725U 25276BM  25361.24571991  .00006595  00000+0  33183-3 0  9998",
        "tle_line2": "2 66725  97.4370  72.7412 0001515 262.7983  97.3079 15.17548569  4325"
      },
      "geometry": {
        "type": "Point",
        "coordinates": [
          71.31639719617088,
          13.635028642496204
        ]
      }
    }
  ]
}